CCSDS_OMM_VERS = 2.0
CREATION_DATE  = 
ORIGINATOR     = 

OBJECT_NAME    = SHENZHOU-21 (SZ-21)
OBJECT_ID      = 2025-246A
CENTER_NAME    = EARTH
REF_FRAME      = TEME
TIME_SYSTEM    = UTC
MEAN_ELEMENT_THEORY = SGP/SGP4

EPOCH          = 2025-11-06T03:27:36.592992
MEAN_MOTION    = 15.60501928
ECCENTRICITY   = .00058828
INCLINATION    = 41.4668
RA_OF_ASC_NODE = 238.9361
ARG_OF_PERICENTER = 331.1905
MEAN_ANOMALY   = 28.8608

EPHEMERIS_TYPE = 0
CLASSIFICATION_TYPE = U
NORAD_CAT_ID   = 66263
ELEMENT_SET_NO = 999
REV_AT_EPOCH   = 25813
BSTAR          = .78556468E-3
MEAN_MOTION_DOT = .66877E-3
MEAN_MOTION_DDOT = 0

CCSDS_OMM_VERS = 2.0
CREATION_DATE  = 
ORIGINATOR     = 

OBJECT_NAME    = CZ-2F R/B
OBJECT_ID      = 2025-246B
CENTER_NAME    = EARTH
REF_FRAME      = TEME
TIME_SYSTEM    = UTC
MEAN_ELEMENT_THEORY = SGP/SGP4

EPOCH          = 2025-11-06T19:07:43.967424
MEAN_MOTION    = 16.12943985
ECCENTRICITY   = .0081393
INCLINATION    = 41.4643
RA_OF_ASC_NODE = 232.3707
ARG_OF_PERICENTER = 173.3670
MEAN_ANOMALY   = 186.8283

EPHEMERIS_TYPE = 0
CLASSIFICATION_TYPE = U
NORAD_CAT_ID   = 66264
ELEMENT_SET_NO = 999
REV_AT_EPOCH   = 99
BSTAR          = .62053E-3
MEAN_MOTION_DOT = .1346723E-1
MEAN_MOTION_DDOT = .76186E-5

