SHENZHOU-21 (SZ-21)     
1 66263U 25246A   25310.14417353  .00066877  00000+0  78556-3 0  9998
2 66263  41.4668 238.9361 0005882 331.1905  28.8608 15.60501928258139
CZ-2F R/B               
1 66264U 25246B   25310.79703666  .01346723  76186-5  62053-3 0  9996
2 66264  41.4643 232.3707 0081393 173.3670 186.8283 16.12943985   995
